CCSDS_OMM_VERS = 2.0
CREATION_DATE  = 
ORIGINATOR     = 

OBJECT_NAME    = ATLAS 5 CENTAUR R/B
OBJECT_ID      = 2025-261B
CENTER_NAME    = EARTH
REF_FRAME      = TEME
TIME_SYSTEM    = UTC
MEAN_ELEMENT_THEORY = SGP/SGP4

EPOCH          = 2025-11-18T16:59:11.023008
MEAN_MOTION    = 2.28238009
ECCENTRICITY   = .23300545
INCLINATION    = 6.1777
RA_OF_ASC_NODE = 294.0142
ARG_OF_PERICENTER = 181.6454
MEAN_ANOMALY   = 197.2445

EPHEMERIS_TYPE = 0
CLASSIFICATION_TYPE = U
NORAD_CAT_ID   = 66455
ELEMENT_SET_NO = 999
REV_AT_EPOCH   = 10
BSTAR          = 0
MEAN_MOTION_DOT = -.72E-6
MEAN_MOTION_DDOT = 0

CCSDS_OMM_VERS = 2.0
CREATION_DATE  = 
ORIGINATOR     = 

OBJECT_NAME    = SENTINEL-6B
OBJECT_ID      = 2025-264A
CENTER_NAME    = EARTH
REF_FRAME      = TEME
TIME_SYSTEM    = UTC
MEAN_ELEMENT_THEORY = SGP/SGP4

EPOCH          = 2025-11-20T05:23:58.810272
MEAN_MOTION    = 12.85876735
ECCENTRICITY   = .00115745
INCLINATION    = 66.0405
RA_OF_ASC_NODE = 209.5384
ARG_OF_PERICENTER = 270.2800
MEAN_ANOMALY   = 89.6891

EPHEMERIS_TYPE = 0
CLASSIFICATION_TYPE = U
NORAD_CAT_ID   = 66514
ELEMENT_SET_NO = 999
REV_AT_EPOCH   = 39
BSTAR          = .47232804E-2
MEAN_MOTION_DOT = .1104E-4
MEAN_MOTION_DDOT = 0

CCSDS_OMM_VERS = 2.0
CREATION_DATE  = 
ORIGINATOR     = 

OBJECT_NAME    = SZ-21 DEB
OBJECT_ID      = 2025-246C
CENTER_NAME    = EARTH
REF_FRAME      = TEME
TIME_SYSTEM    = UTC
MEAN_ELEMENT_THEORY = SGP/SGP4

EPOCH          = 2025-11-19T23:09:36.356832
MEAN_MOTION    = 15.60989233
ECCENTRICITY   = .00045718
INCLINATION    = 41.4748
RA_OF_ASC_NODE = 154.8166
ARG_OF_PERICENTER = 96.5474
MEAN_ANOMALY   = 263.5885

EPHEMERIS_TYPE = 0
CLASSIFICATION_TYPE = U
NORAD_CAT_ID   = 66515
ELEMENT_SET_NO = 999
REV_AT_EPOCH   = 88
BSTAR          = .27455093E-3
MEAN_MOTION_DOT = .23458E-3
MEAN_MOTION_DDOT = 0

CCSDS_OMM_VERS = 2.0
CREATION_DATE  = 
ORIGINATOR     = 

OBJECT_NAME    = SHIJIAN-30A
OBJECT_ID      = 2025-266A
CENTER_NAME    = EARTH
REF_FRAME      = TEME
TIME_SYSTEM    = UTC
MEAN_ELEMENT_THEORY = SGP/SGP4

EPOCH          = 2025-11-20T06:28:09.183072
MEAN_MOTION    = 15.15592292
ECCENTRICITY   = .00127405
INCLINATION    = 51.7991
RA_OF_ASC_NODE = 78.1104
ARG_OF_PERICENTER = 276.2503
MEAN_ANOMALY   = 83.7022

EPHEMERIS_TYPE = 0
CLASSIFICATION_TYPE = U
NORAD_CAT_ID   = 66545
ELEMENT_SET_NO = 999
REV_AT_EPOCH   = 17
BSTAR          = .60143711E-3
MEAN_MOTION_DOT = .11292E-3
MEAN_MOTION_DDOT = 0

CCSDS_OMM_VERS = 2.0
CREATION_DATE  = 
ORIGINATOR     = 

OBJECT_NAME    = SHIJIAN-30B
OBJECT_ID      = 2025-266B
CENTER_NAME    = EARTH
REF_FRAME      = TEME
TIME_SYSTEM    = UTC
MEAN_ELEMENT_THEORY = SGP/SGP4

EPOCH          = 2025-11-20T06:28:25.298400
MEAN_MOTION    = 15.15348323
ECCENTRICITY   = .00104395
INCLINATION    = 51.7973
RA_OF_ASC_NODE = 78.1123
ARG_OF_PERICENTER = 275.7245
MEAN_ANOMALY   = 84.2541

EPHEMERIS_TYPE = 0
CLASSIFICATION_TYPE = U
NORAD_CAT_ID   = 66546
ELEMENT_SET_NO = 999
REV_AT_EPOCH   = 17
BSTAR          = .70376989E-3
MEAN_MOTION_DOT = .13169E-3
MEAN_MOTION_DDOT = 0

CCSDS_OMM_VERS = 2.0
CREATION_DATE  = 
ORIGINATOR     = 

OBJECT_NAME    = SHIJIAN-30C
OBJECT_ID      = 2025-266C
CENTER_NAME    = EARTH
REF_FRAME      = TEME
TIME_SYSTEM    = UTC
MEAN_ELEMENT_THEORY = SGP/SGP4

EPOCH          = 2025-11-20T06:28:39.518976
MEAN_MOTION    = 15.15110152
ECCENTRICITY   = .0011301
INCLINATION    = 51.7983
RA_OF_ASC_NODE = 78.1128
ARG_OF_PERICENTER = 268.4656
MEAN_ANOMALY   = 91.5026

EPHEMERIS_TYPE = 0
CLASSIFICATION_TYPE = U
NORAD_CAT_ID   = 66547
ELEMENT_SET_NO = 999
REV_AT_EPOCH   = 17
BSTAR          = .52566073E-3
MEAN_MOTION_DOT = .9687E-4
MEAN_MOTION_DDOT = 0

